{
  "type": "FeatureCollection",
  "features": [
    {
      "type": "Feature",
      "properties": {
        "norad_id": 32234,
        "name": "FENGYUN 1C DEB",
        "group": "fengyun-1c-debris",
        "lat": 77.6173246385274,
        "lon": 55.67443161960533,
        "alt_km": 941.7161298536503,
        "timestamp": "2025-12-08T08:59:01.051947+00:00",
        "meta_object_name": "FENGYUN 1C DEB",
        "meta_object_id": "1999-025CWG",
        "meta_epoch": "2025-12-02T12:59:39.185664",
        "meta_mean_motion": 13.9406659,
        "meta_eccentricity": 0.0137699,
        "meta_inclination": 98.5292,
        "meta_ra_of_asc_node": 187.1676,
        "meta_arg_of_pericenter": 4.214,
        "meta_mean_anomaly": 356.0148,
        "meta_ephemeris_type": 0,
        "meta_classification_type": "U",
        "meta_norad_cat_id": 32234,
        "meta_element_set_no": 999,
        "meta_rev_at_epoch": 93067,
        "meta_bstar": 0.0016148587,
        "meta_mean_motion_dot": 2.273e-05,
        "meta_mean_motion_ddot": 0,
        "tle_line1": "1 32234U 99025CWG 25336.54142576  .00002273  00000+0  16149-2 0  9998",
        "tle_line2": "2 32234  98.5292 187.1676 0137699   4.2140 356.0148 13.94066590930678"
      },
      "geometry": {
        "type": "Point",
        "coordinates": [
          55.67443161960533,
          77.6173246385274
        ]
      }
    },
    {
      "type": "Feature",
      "properties": {
        "norad_id": 32241,
        "name": "FENGYUN 1C DEB",
        "group": "fengyun-1c-debris",
        "lat": -48.58524792997456,
        "lon": 22.093243414239282,
        "alt_km": 773.6115759619379,
        "timestamp": "2025-12-08T08:59:01.051968+00:00",
        "meta_object_name": "FENGYUN 1C DEB",
        "meta_object_id": "1999-025CWP",
        "meta_epoch": "2025-12-07T19:46:08.173344",
        "meta_mean_motion": 14.28684747,
        "meta_eccentricity": 0.01462273,
        "meta_inclination": 99.0774,
        "meta_ra_of_asc_node": 11.0781,
        "meta_arg_of_pericenter": 237.6639,
        "meta_mean_anomaly": 121.0314,
        "meta_ephemeris_type": 0,
        "meta_classification_type": "U",
        "meta_norad_cat_id": 32241,
        "meta_element_set_no": 999,
        "meta_rev_at_epoch": 93753,
        "meta_bstar": 0.0026184571,
        "meta_mean_motion_dot": 7.341e-05,
        "meta_mean_motion_ddot": 0,
        "tle_line1": "1 32241U 99025CWP 25341.82370571  .00007341  00000+0  26185-2 0  9993",
        "tle_line2": "2 32241  99.0774  11.0781 0146227 237.6639 121.0314 14.28684747937536"
      },
      "geometry": {
        "type": "Point",
        "coordinates": [
          22.093243414239282,
          -48.58524792997456
        ]
      }
    },
    {
      "type": "Feature",
      "properties": {
        "norad_id": 32243,
        "name": "FENGYUN 1C DEB",
        "group": "fengyun-1c-debris",
        "lat": -80.06572691172269,
        "lon": 63.49263410656365,
        "alt_km": 1032.3035075490634,
        "timestamp": "2025-12-08T08:59:01.051980+00:00",
        "meta_object_name": "FENGYUN 1C DEB",
        "meta_object_id": "1999-025CWR",
        "meta_epoch": "2025-12-07T00:55:13.397664",
        "meta_mean_motion": 14.04540046,
        "meta_eccentricity": 0.02697118,
        "meta_inclination": 98.2673,
        "meta_ra_of_asc_node": 6.1618,
        "meta_arg_of_pericenter": 139.6852,
        "meta_mean_anomaly": 222.466,
        "meta_ephemeris_type": 0,
        "meta_classification_type": "U",
        "meta_norad_cat_id": 32243,
        "meta_element_set_no": 999,
        "meta_rev_at_epoch": 93508,
        "meta_bstar": 0.0026668664,
        "meta_mean_motion_dot": 5.86e-05,
        "meta_mean_motion_ddot": 0,
        "tle_line1": "1 32243U 99025CWR 25341.03834951  .00005860  00000+0  26669-2 0  9996",
        "tle_line2": "2 32243  98.2673   6.1618 0269711 139.6852 222.4660 14.04540046935088"
      },
      "geometry": {
        "type": "Point",
        "coordinates": [
          63.49263410656365,
          -80.06572691172269
        ]
      }
    },
    {
      "type": "Feature",
      "properties": {
        "norad_id": 32245,
        "name": "FENGYUN 1C DEB",
        "group": "fengyun-1c-debris",
        "lat": 51.08973210985173,
        "lon": 8.984798595649428,
        "alt_km": 680.509173227143,
        "timestamp": "2025-12-08T08:59:01.051991+00:00",
        "meta_object_name": "FENGYUN 1C DEB",
        "meta_object_id": "1999-025CWT",
        "meta_epoch": "2025-12-06T23:53:18.163104",
        "meta_mean_motion": 14.76814235,
        "meta_eccentricity": 0.00979593,
        "meta_inclination": 98.6542,
        "meta_ra_of_asc_node": 176.6309,
        "meta_arg_of_pericenter": 359.9975,
        "meta_mean_anomaly": 0.1216,
        "meta_ephemeris_type": 0,
        "meta_classification_type": "U",
        "meta_norad_cat_id": 32245,
        "meta_element_set_no": 999,
        "meta_rev_at_epoch": 66021,
        "meta_bstar": 0.0018289926,
        "meta_mean_motion_dot": 0.00013852,
        "meta_mean_motion_ddot": 0,
        "tle_line1": "1 32245U 99025CWT 25340.99534911  .00013852  00000+0  18290-2 0  9996",
        "tle_line2": "2 32245  98.6542 176.6309 0097959 359.9975   0.1216 14.76814235660216"
      },
      "geometry": {
        "type": "Point",
        "coordinates": [
          8.984798595649428,
          51.08973210985173
        ]
      }
    },
    {
      "type": "Feature",
      "properties": {
        "norad_id": 32304,
        "name": "FENGYUN 1C DEB",
        "group": "fengyun-1c-debris",
        "lat": -0.6301163605730589,
        "lon": 116.33199797713367,
        "alt_km": 709.1996620979826,
        "timestamp": "2025-12-08T08:59:01.052001+00:00",
        "meta_object_name": "FENGYUN 1C DEB",
        "meta_object_id": "1999-025CWV",
        "meta_epoch": "2025-12-03T02:19:20.087328",
        "meta_mean_motion": 14.50391603,
        "meta_eccentricity": 0.00495576,
        "meta_inclination": 99.3949,
        "meta_ra_of_asc_node": 290.5539,
        "meta_arg_of_pericenter": 255.7789,
        "meta_mean_anomaly": 103.7894,
        "meta_ephemeris_type": 0,
        "meta_classification_type": "U",
        "meta_norad_cat_id": 32304,
        "meta_element_set_no": 999,
        "meta_rev_at_epoch": 56133,
        "meta_bstar": 0.0019806873,
        "meta_mean_motion_dot": 7.809e-05,
        "meta_mean_motion_ddot": 0,
        "tle_line1": "1 32304U 99025CWV 25337.09676027  .00007809  00000+0  19807-2 0  9994",
        "tle_line2": "2 32304  99.3949 290.5539 0049557 255.7789 103.7894 14.50391603561335"
      },
      "geometry": {
        "type": "Point",
        "coordinates": [
          116.33199797713367,
          -0.6301163605730589
        ]
      }
    },
    {
      "type": "Feature",
      "properties": {
        "norad_id": 32308,
        "name": "FENGYUN 1C DEB",
        "group": "fengyun-1c-debris",
        "lat": 69.41230583923053,
        "lon": 14.562902761699263,
        "alt_km": 789.0411894879144,
        "timestamp": "2025-12-08T08:59:01.052011+00:00",
        "meta_object_name": "FENGYUN 1C DEB",
        "meta_object_id": "1999-025CWZ",
        "meta_epoch": "2025-12-06T13:56:17.681280",
        "meta_mean_motion": 14.05453804,
        "meta_eccentricity": 0.01091821,
        "meta_inclination": 97.7755,
        "meta_ra_of_asc_node": 34.3534,
        "meta_arg_of_pericenter": 78.3987,
        "meta_mean_anomaly": 282.9416,
        "meta_ephemeris_type": 0,
        "meta_classification_type": "U",
        "meta_norad_cat_id": 32308,
        "meta_element_set_no": 999,
        "meta_rev_at_epoch": 65325,
        "meta_bstar": 0.0028488037,
        "meta_mean_motion_dot": 4.847e-05,
        "meta_mean_motion_ddot": 0,
        "tle_line1": "1 32308U 99025CWZ 25340.58076020  .00004847  00000+0  28488-2 0  9997",
        "tle_line2": "2 32308  97.7755  34.3534 0109182  78.3987 282.9416 14.05453804653250"
      },
      "geometry": {
        "type": "Point",
        "coordinates": [
          14.562902761699263,
          69.41230583923053
        ]
      }
    },
    {
      "type": "Feature",
      "properties": {
        "norad_id": 32314,
        "name": "FENGYUN 1C DEB",
        "group": "fengyun-1c-debris",
        "lat": -28.69519681618587,
        "lon": -97.92867771152059,
        "alt_km": 553.6337246032281,
        "timestamp": "2025-12-08T08:59:01.052022+00:00",
        "meta_object_name": "FENGYUN 1C DEB",
        "meta_object_id": "1999-025CXF",
        "meta_epoch": "2025-12-07T01:12:11.554272",
        "meta_mean_motion": 14.79255815,
        "meta_eccentricity": 0.0149642,
        "meta_inclination": 98.8639,
        "meta_ra_of_asc_node": 85.5123,
        "meta_arg_of_pericenter": 175.5933,
        "meta_mean_anomaly": 184.6634,
        "meta_ephemeris_type": 0,
        "meta_classification_type": "U",
        "meta_norad_cat_id": 32314,
        "meta_element_set_no": 999,
        "meta_rev_at_epoch": 97346,
        "meta_bstar": 0.0025695971,
        "meta_mean_motion_dot": 0.00023086,
        "meta_mean_motion_ddot": 0,
        "tle_line1": "1 32314U 99025CXF 25341.05013373  .00023086  00000+0  25696-2 0  9993",
        "tle_line2": "2 32314  98.8639  85.5123 0149642 175.5933 184.6634 14.79255815973469"
      },
      "geometry": {
        "type": "Point",
        "coordinates": [
          -97.92867771152059,
          -28.69519681618587
        ]
      }
    }
  ]
}